$$SOE
2460154.500000000, A.D. 2023-Jul-29 00:00:00.0000, 2.506925110776570E+08, -4.801025413199646E+08, 1.656285845014915E+07,
2460161.500000000, A.D. 2023-Aug-05 00:00:00.0000, 2.587587956852642E+08, -4.757190170761151E+08, 1.556381471094257E+07,
2460168.500000000, A.D. 2023-Aug-12 00:00:00.0000, 2.667460316417499E+08, -4.711902458780065E+08, 1.456001969956234E+07,
2460175.500000000, A.D. 2023-Aug-19 00:00:00.0000, 2.746517277685639E+08, -4.665175231011218E+08, 1.355177727096596E+07,
2460182.500000000, A.D. 2023-Aug-26 00:00:00.0000, 2.824734113302161E+08, -4.617021838764333E+08, 1.253939281243020E+07,
2460189.500000000, A.D. 2023-Sep-02 00:00:00.0000, 2.902086284944704E+08, -4.567456029462866E+08, 1.152317319544297E+07,
2460196.500000000, A.D. 2023-Sep-09 00:00:00.0000, 2.978549448112125E+08, -4.516491946310756E+08, 1.050342671581182E+07,
2460203.500000000, A.D. 2023-Sep-16 00:00:00.0000, 3.054099458787119E+08, -4.464144129650391E+08, 9.480463001852751E+06,
2460210.500000000, A.D. 2023-Sep-23 00:00:00.0000, 3.128712386140044E+08, -4.410427517146934E+08, 8.454592875987381E+06,
2460217.500000000, A.D. 2023-Sep-30 00:00:00.0000, 3.202364527880450E+08, -4.355357430896710E+08, 7.426128298345476E+06,
2460224.500000000, A.D. 2023-Oct-07 00:00:00.0000, 3.275032404715304E+08, -4.298949556890302E+08, 6.395382564011216E+06,
2460231.500000000, A.D. 2023-Oct-14 00:00:00.0000, 3.346692744305703E+08, -4.241219949953238E+08, 5.362670387786418E+06,
2460238.500000000, A.D. 2023-Oct-21 00:00:00.0000, 3.417322487007799E+08, -4.182185048124822E+08, 4.328307711360931E+06,
2460245.500000000, A.D. 2023-Oct-28 00:00:00.0000, 3.486898799159760E+08, -4.121861673869482E+08, 3.292611548440874E+06,
2460252.500000000, A.D. 2023-Nov-04 00:00:00.0000, 3.555399081417811E+08, -4.060267029823045E+08, 2.255899919775754E+06,
2460259.500000000, A.D. 2023-Nov-11 00:00:00.0000, 3.622800973918602E+08, -3.997418695069922E+08, 1.218491813010067E+06,
2460266.500000000, A.D. 2023-Nov-18 00:00:00.0000, 3.689082360464132E+08, -3.933334622590961E+08, 1.807071421876252E+05,
2460273.500000000, A.D. 2023-Nov-25 00:00:00.0000, 3.754221372458268E+08, -3.868033137653137E+08, -8.571332977400720E+05,
2460280.500000000, A.D. 2023-Dec-02 00:00:00.0000, 3.818196392876180E+08, -3.801532937249314E+08, -1.894707884776056E+06,
2460287.500000000, A.D. 2023-Dec-09 00:00:00.0000, 3.880986061043438E+08, -3.733853091171264E+08, -2.931694244020283E+06,
2460294.500000000, A.D. 2023-Dec-16 00:00:00.0000, 3.942569281100729E+08, -3.665013044582279E+08, -3.967769367466107E+06,
2460301.500000000, A.D. 2023-Dec-23 00:00:00.0000, 4.002925237644422E+08, -3.595032615209662E+08, -5.002609755278364E+06,
2460308.500000000, A.D. 2023-Dec-30 00:00:00.0000, 4.062033405148033E+08, -3.523931974666921E+08, -6.035891369945407E+06,
2460315.500000000, A.D. 2024-Jan-06 00:00:00.0000, 4.119873533438663E+08, -3.451731637515466E+08, -7.067289433853313E+06,
2460322.500000000, A.D. 2024-Jan-13 00:00:00.0000, 4.176425640948285E+08, -3.378452476126426E+08, -8.096478509290367E+06,
2460329.500000000, A.D. 2024-Jan-20 00:00:00.0000, 4.231670027975749E+08, -3.304115730486407E+08, -9.123132721343875E+06,
2460336.500000000, A.D. 2024-Jan-27 00:00:00.0000, 4.285587289676985E+08, -3.228743006421402E+08, -1.014692588456142E+07,
2460343.500000000, A.D. 2024-Feb-03 00:00:00.0000, 4.338158324502615E+08, -3.152356271722937E+08, -1.116753157185626E+07,
2460350.500000000, A.D. 2024-Feb-10 00:00:00.0000, 4.389364340858086E+08, -3.074977853084393E+08, -1.218462317512925E+07,
2460357.500000000, A.D. 2024-Feb-17 00:00:00.0000, 4.439186863374923E+08, -2.996630433764789E+08, -1.319787396989016E+07,
2460364.500000000, A.D. 2024-Feb-24 00:00:00.0000, 4.487607739153956E+08, -2.917337051829211E+08, -1.420695718614778E+07,
2460371.500000000, A.D. 2024-Mar-02 00:00:00.0000, 4.534609144274070E+08, -2.837121099288608E+08, -1.521154609107377E+07,
2460378.500000000, A.D. 2024-Mar-09 00:00:00.0000, 4.580173591952072E+08, -2.756006322763710E+08, -1.621131410145323E+07,
2460385.500000000, A.D. 2024-Mar-16 00:00:00.0000, 4.624283946303980E+08, -2.674016823693751E+08, -1.720593494616126E+07,
2460392.500000000, A.D. 2024-Mar-23 00:00:00.0000, 4.666923440674458E+08, -2.591177046994573E+08, -1.819508277857089E+07,
2460399.500000000, A.D. 2024-Mar-30 00:00:00.0000, 4.708075678125616E+08, -2.507511758437302E+08, -1.917843203552933E+07,
2460406.500000000, A.D. 2024-Apr-06 00:00:00.0000, 4.747724616633614E+08, -2.423046044424517E+08, -2.015565734165829E+07,
2460413.500000000, A.D. 2024-Apr-13 00:00:00.0000, 4.785854574486169E+08, -2.337805325784827E+08, -2.112643371639462E+07,
2460420.500000000, A.D. 2024-Apr-20 00:00:00.0000, 4.822450246354662E+08, -2.251815358800993E+08, -2.209043677767509E+07,
2460427.500000000, A.D. 2024-Apr-27 00:00:00.0000, 4.857496714876430E+08, -2.165102229073786E+08, -2.304734284895156E+07,
2460434.500000000, A.D. 2024-May-04 00:00:00.0000, 4.890979458634705E+08, -2.077692345249066E+08, -2.399682903503239E+07,
2460441.500000000, A.D. 2024-May-11 00:00:00.0000, 4.922884358926801E+08, -1.989612433622944E+08, -2.493857329686469E+07,
2460448.500000000, A.D. 2024-May-18 00:00:00.0000, 4.953197706144127E+08, -1.900889533407091E+08, -2.587225453091010E+07,
2460455.500000000, A.D. 2024-May-25 00:00:00.0000, 4.981906206010662E+08, -1.811550992723154E+08, -2.679755265582611E+07,
2460462.500000000, A.D. 2024-Jun-01 00:00:00.0000, 5.008996986273310E+08, -1.721624465896769E+08, -2.771414871646188E+07,
2460469.500000000, A.D. 2024-Jun-08 00:00:00.0000, 5.034457606297747E+08, -1.631137912273397E+08, -2.862172502942825E+07,
2460476.500000000, A.D. 2024-Jun-15 00:00:00.0000, 5.058276073554561E+08, -1.540119591091653E+08, -2.951996536206719E+07,
2460483.500000000, A.D. 2024-Jun-22 00:00:00.0000, 5.080440856944133E+08, -1.448598040648680E+08, -3.040855495627734E+07,
2460490.500000000, A.D. 2024-Jun-29 00:00:00.0000, 5.100940875751060E+08, -1.356602059963144E+08, -3.128718035117307E+07,
2460497.500000000, A.D. 2024-Jul-06 00:00:00.0000, 5.119765490669966E+08, -1.264160717646804E+08, -3.215552944897426E+07,
2460504.500000000, A.D. 2024-Jul-13 00:00:00.0000, 5.136904516381068E+08, -1.171303359733216E+08, -3.301329177196346E+07,
2460511.500000000, A.D. 2024-Jul-20 00:00:00.0000, 5.152348235814424E+08, -1.078059604965921E+08, -3.386015863439026E+07,
2460518.500000000, A.D. 2024-Jul-27 00:00:00.0000, 5.166087409541834E+08, -9.844593371344860E+07, -3.469582324755940E+07,
2460525.500000000, A.D. 2024-Aug-03 00:00:00.0000, 5.178113283022892E+08, -8.905326982023355E+07, -3.551998081386050E+07,
2460532.500000000, A.D. 2024-Aug-10 00:00:00.0000, 5.188417593359034E+08, -7.963100822643998E+07, -3.633232862546638E+07,
2460539.500000000, A.D. 2024-Aug-17 00:00:00.0000, 5.196992576024858E+08, -7.018221301101172E+07, -3.713256617047389E+07,
2460546.500000000, A.D. 2024-Aug-24 00:00:00.0000, 5.203830971850921E+08, -6.070997246075608E+07, -3.792039525111469E+07,
2460553.500000000, A.D. 2024-Aug-31 00:00:00.0000, 5.208926035407798E+08, -5.121739875185329E+07, -3.869552012993585E+07,
2460560.500000000, A.D. 2024-Sep-07 00:00:00.0000, 5.212271548433616E+08, -4.170762764760306E+07, -3.945764772737844E+07,
2460567.500000000, A.D. 2024-Sep-14 00:00:00.0000, 5.213861839140899E+08, -3.218381721542121E+07, -4.020648779729870E+07,
2460574.500000000, A.D. 2024-Sep-21 00:00:00.0000, 5.213691787110555E+08, -2.264914514906540E+07, -4.094175286071612E+07,
2460581.500000000, A.D. 2024-Sep-28 00:00:00.0000, 5.211756808901766E+08, -1.310680792349521E+07, -4.166315811704575E+07,
2460588.500000000, A.D. 2024-Oct-05 00:00:00.0000, 5.208052861060449E+08, -3.560021780679118E+06, -4.237042166938054E+07,
2460595.500000000, A.D. 2024-Oct-12 00:00:00.0000, 5.202576456902193E+08, 5.987977434871383E+06, -4.306326478716961E+07,
2460602.500000000, A.D. 2024-Oct-19 00:00:00.0000, 5.195324679554457E+08, 1.553393532127126E+07, -4.374141206781851E+07,
2460609.500000000, A.D. 2024-Oct-26 00:00:00.0000, 5.186295190933062E+08, 2.507458004462875E+07, -4.440459155977710E+07,
2460616.500000000, A.D. 2024-Nov-02 00:00:00.0000, 5.175486239225532E+08, 3.460662339690714E+07, -4.505253488289225E+07,
2460623.500000000, A.D. 2024-Nov-09 00:00:00.0000, 5.162896665846181E+08, 4.412676180751909E+07, -4.568497735322499E+07,
2460630.500000000, A.D. 2024-Nov-16 00:00:00.0000, 5.148525912120228E+08, 5.363167730926155E+07, -4.630165811469100E+07,
2460637.500000000, A.D. 2024-Nov-23 00:00:00.0000, 5.132374026162676E+08, 6.311803840874507E+07, -4.690232028587789E+07,
2460644.500000000, A.D. 2024-Nov-30 00:00:00.0000, 5.114441672026155E+08, 7.258250081828813E+07, -4.748671114453857E+07,
2460651.500000000, A.D. 2024-Dec-07 00:00:00.0000, 5.094730145290992E+08, 8.202170846931630E+07, -4.805458235360337E+07,
2460658.500000000, A.D. 2024-Dec-14 00:00:00.0000, 5.073241388180339E+08, 9.143229603167778E+07, -4.860569006503080E+07,
2460665.500000000, A.D. 2024-Dec-21 00:00:00.0000, 5.049977981000551E+08, 1.008108916997363E+08, -4.913979478981359E+07,
2460672.500000000, A.D. 2024-Dec-28 00:00:00.0000, 5.024943129631843E+08, 1.101541172785838E+08, -4.965666145741299E+07,
2460679.500000000, A.D. 2025-Jan-04 00:00:00.0000, 4.998140675028797E+08, 1.194585879466823E+08, -5.015605970840123E+07,
2460686.500000000, A.D. 2025-Jan-11 00:00:00.0000, 4.969575106507689E+08, 1.287209133554666E+08, -5.063776411729090E+07,
2460693.500000000, A.D. 2025-Jan-18 00:00:00.0000, 4.939251569650136E+08, 1.379376991474394E+08, -5.110155433628815E+07,
2460700.500000000, A.D. 2025-Jan-25 00:00:00.0000, 4.907175871255350E+08, 1.471055484179441E+08, -5.154721522083154E+07,
2460707.500000000, A.D. 2025-Feb-01 00:00:00.0000, 4.873354483227832E+08, 1.562210630900144E+08, -5.197453695643924E+07,
2460714.500000000, A.D. 2025-Feb-08 00:00:00.0000, 4.837794545972630E+08, 1.652808452215581E+08, -5.238331519025671E+07,
2460721.500000000, A.D. 2025-Feb-15 00:00:00.0000, 4.800503871572937E+08, 1.742814982245834E+08, -5.277335117123953E+07,
$$EOE